{"type": "FeatureCollection", "features": [ {"type": "Feature", "properties": {"norad_id": 67066, "name": "HULIANWANG DIGUI-126", "group": "last-30-days", "lat": 35.704891128119804, "lon": 124.66364954035026, "alt_km": 806.6814704287917, "timestamp": "2025-12-19T22:41:51.099980+00:00", "meta": {"OBJECT_NAME": "HULIANWANG DIGUI-126", "OBJECT_ID": "2025-295H", "EPOCH": "2025-12-19T18:43:29.093376", "MEAN_MOTION": 14.26096808, "ECCENTRICITY": 0.0011439, "INCLINATION": 50.0014, "RA_OF_ASC_NODE": 342.4785, "ARG_OF_PERICENTER": 275.0106, "MEAN_ANOMALY": 84.9502, "EPHEMERIS_TYPE": 0, "CLASSIFICATION_TYPE": "U", "NORAD_CAT_ID": 67066, "ELEMENT_SET_NO": 999, "REV_AT_EPOCH": 112, "BSTAR": 0.00010653, "MEAN_MOTION_DOT": 9.6e-07, "MEAN_MOTION_DDOT": 0}, "tle": {"line1": "1 67066U 25295H   25353.78019784  .00000096  00000+0  10653-3 0  9992", "line2": "2 67066  50.0014 342.4785 0011439 275.0106  84.9502 14.26096808  1125"}}, "geometry": {"type": "Point", "coordinates": [124.66364954035026, 35.704891128119804]}}, {"type": "Feature", "properties": {"norad_id": 67067, "name": "HULIANWANG DIGUI-127", "group": "last-30-days", "lat": 33.252851772374534, "lon": 128.38130624637992, "alt_km": 806.2152903749366, "timestamp": "2025-12-19T22:41:51.099991+00:00", "meta": {"OBJECT_NAME": "HULIANWANG DIGUI-127", "OBJECT_ID": "2025-295J", "EPOCH": "2025-12-19T18:42:24.914592", "MEAN_MOTION": 14.26251183, "ECCENTRICITY": 0.0010875, "INCLINATION": 50.0053, "RA_OF_ASC_NODE": 342.4819, "ARG_OF_PERICENTER": 278.901, "MEAN_ANOMALY": 81.0673, "EPHEMERIS_TYPE": 0, "CLASSIFICATION_TYPE": "U", "NORAD_CAT_ID": 67067, "ELEMENT_SET_NO": 999, "REV_AT_EPOCH": 112, "BSTAR": -0.00026867, "MEAN_MOTION_DOT": -8.09e-06, "MEAN_MOTION_DDOT": 0}, "tle": {"line1": "1 67067U 25295J   25353.77945503 -.00000809  00000+0 -26867-3 0  9997", "line2": "2 67067  50.0053 342.4819 0010875 278.9010  81.0673 14.26251183  1122"}}, "geometry": {"type": "Point", "coordinates": [128.38130624637992, 33.252851772374534]}}, {"type": "Feature", "properties": {"norad_id": 67068, "name": "CZ-12 R/B", "group": "last-30-days", "lat": -14.572086302511119, "lon": 173.6164896888496, "alt_km": 724.6526100998035, "timestamp": "2025-12-19T22:41:51.100001+00:00", "meta": {"OBJECT_NAME": "CZ-12 R/B", "OBJECT_ID": "2025-295K", "EPOCH": "2025-12-19T11:47:42.665856", "MEAN_MOTION": 14.41129033, "ECCENTRICITY": 0.0056889, "INCLINATION": 49.9945, "RA_OF_ASC_NODE": 342.9744, "ARG_OF_PERICENTER": 160.1053, "MEAN_ANOMALY": 200.2102, "EPHEMERIS_TYPE": 0, "CLASSIFICATION_TYPE": "U", "NORAD_CAT_ID": 67068, "ELEMENT_SET_NO": 999, "REV_AT_EPOCH": 108, "BSTAR": 1.5271e-05, "MEAN_MOTION_DOT": -1.18e-06, "MEAN_MOTION_DDOT": 0}, "tle": {"line1": "1 67068U 25295K   25353.49146604 -.00000118  00000+0  15271-4 0  9992", "line2": "2 67068  49.9945 342.9744 0056889 160.1053 200.2102 14.41129033  1088"}}, "geometry": {"type": "Point", "coordinates": [173.6164896888496, -14.572086302511119]}}, {"type": "Feature", "properties": {"norad_id": 67069, "name": "XIWANG-5 02", "group": "last-30-days", "lat": 2.673751368755482, "lon": 63.51178789616136, "alt_km": 511.66647275973446, "timestamp": "2025-12-19T22:41:51.100013+00:00", "meta": {"OBJECT_NAME": "XIWANG-5 02", "OBJECT_ID": "2025-296A", "EPOCH": "2025-12-19T16:21:31.212000", "MEAN_MOTION": 15.16806567, "ECCENTRICITY": 0.0014495, "INCLINATION": 41.3526, "RA_OF_ASC_NODE": 61.975, "ARG_OF_PERICENTER": 74.5676, "MEAN_ANOMALY": 285.6746, "EPHEMERIS_TYPE": 0, "CLASSIFICATION_TYPE": "U", "NORAD_CAT_ID": 67069, "ELEMENT_SET_NO": 999, "REV_AT_EPOCH": 101, "BSTAR": 0.00043858, "MEAN_MOTION_DOT": 8.613e-05, "MEAN_MOTION_DDOT": 0}, "tle": {"line1": "1 67069U 25296A   25353.68161125  .00008613  00000+0  43858-3 0  9998", "line2": "2 67069  41.3526  61.9750 0014495  74.5676 285.6746 15.16806567  1012"}}, "geometry": {"type": "Point", "coordinates": [63.51178789616136, 2.673751368755482]}}, {"type": "Feature", "properties": {"norad_id": 67070, "name": "DEAR-5", "group": "last-30-days", "lat": 5.453353409365727, "lon": 66.69059157057178, "alt_km": 510.23632968027687, "timestamp": "2025-12-19T22:41:51.100023+00:00", "meta": {"OBJECT_NAME": "DEAR-5", "OBJECT_ID": "2025-296B", "EPOCH": "2025-12-19T16:20:25.579104", "MEAN_MOTION": 15.16874808, "ECCENTRICITY": 0.0016066, "INCLINATION": 41.3553, "RA_OF_ASC_NODE": 61.9711, "ARG_OF_PERICENTER": 75.9678, "MEAN_ANOMALY": 284.2929, "EPHEMERIS_TYPE": 0, "CLASSIFICATION_TYPE": "U", "NORAD_CAT_ID": 67070, "ELEMENT_SET_NO": 999, "REV_AT_EPOCH": 100, "BSTAR": 0.00023707, "MEAN_MOTION_DOT": 4.569e-05, "MEAN_MOTION_DDOT": 0}, "tle": {"line1": "1 67070U 25296B   25353.68085161  .00004569  00000+0  23707-3 0  9992", "line2": "2 67070  41.3553  61.9711 0016066  75.9678 284.2929 15.16874808  1004"}}, "geometry": {"type": "Point", "coordinates": [66.69059157057178, 5.453353409365727]}}, {"type": "Feature", "properties": {"norad_id": 67071, "name": "KZ-11 R/B", "group": "last-30-days", "lat": -27.590088873899465, "lon": -80.57131299370546, "alt_km": 873.5563525476546, "timestamp": "2025-12-19T22:41:51.100033+00:00", "meta": {"OBJECT_NAME": "KZ-11 R/B", "OBJECT_ID": "2025-296C", "EPOCH": "2025-12-19T13:41:34.586880", "MEAN_MOTION": 14.9799091, "ECCENTRICITY": 0.0633659, "INCLINATION": 41.3275, "RA_OF_ASC_NODE": 65.0444, "ARG_OF_PERICENTER": 1.3602, "MEAN_ANOMALY": 358.8773, "EPHEMERIS_TYPE": 0, "CLASSIFICATION_TYPE": "U", "NORAD_CAT_ID": 67071, "ELEMENT_SET_NO": 999, "REV_AT_EPOCH": 96, "BSTAR": 0.00052382, "MEAN_MOTION_DOT": 0.06216299, "MEAN_MOTION_DDOT": 6.2939e-06}, "tle": {"line1": "1 67071U 25296C   25353.57053920  .06216299  62939-5  52382-3 0  9996", "line2": "2 67071  41.3275  65.0444 0633659   1.3602 358.8773 14.97990910   967"}}, "geometry": {"type": "Point", "coordinates": [-80.57131299370546, -27.590088873899465]}}, {"type": "Feature", "properties": {"norad_id": 67072, "name": "ELECTRON R/B", "group": "last-30-days", "lat": 61.857795641549636, "lon": -23.855663168920657, "alt_km": 286.3679053574133, "timestamp": "2025-12-19T22:41:51.100044+00:00", "meta": {"OBJECT_NAME": "ELECTRON R/B", "OBJECT_ID": "2025-297A", "EPOCH": "2025-12-19T17:40:02.338752", "MEAN_MOTION": 15.91175695, "ECCENTRICITY": 0.0189979, "INCLINATION": 97.4704, "RA_OF_ASC_NODE": 141.712, "ARG_OF_PERICENTER": 207.3211, "MEAN_ANOMALY": 151.7973, "EPHEMERIS_TYPE": 0, "CLASSIFICATION_TYPE": "U", "NORAD_CAT_ID": 67072, "ELEMENT_SET_NO": 999, "REV_AT_EPOCH": 89, "BSTAR": 0.001321, "MEAN_MOTION_DOT": 0.0249772, "MEAN_MOTION_DDOT": 2.2171e-06}, "tle": {"line1": "1 67072U 25297A   25353.73613818  .02497720  22171-5  13210-2 0  9990", "line2": "2 67072  97.4704 141.7120 0189979 207.3211 151.7973 15.91175695   899"}}, "geometry": {"type": "Point", "coordinates": [-23.855663168920657, 61.857795641549636]}}, {"type": "Feature", "properties": {"norad_id": 67073, "name": "RAISE-4", "group": "last-30-days", "lat": 53.254794069199086, "lon": 131.15756304604588, "alt_km": 543.7176120151007, "timestamp": "2025-12-19T22:41:51.100056+00:00", "meta": {"OBJECT_NAME": "RAISE-4", "OBJECT_ID": "2025-297B", "EPOCH": "2025-12-19T06:31:31.025568", "MEAN_MOTION": 15.07177511, "ECCENTRICITY": 0.00114177, "INCLINATION": 97.4853, "RA_OF_ASC_NODE": 140.6452, "ARG_OF_PERICENTER": 296.9674, "MEAN_ANOMALY": 63.0387, "EPHEMERIS_TYPE": 0, "CLASSIFICATION_TYPE": "U", "NORAD_CAT_ID": 67073, "ELEMENT_SET_NO": 999, "REV_AT_EPOCH": 77, "BSTAR": 0.00022353741, "MEAN_MOTION_DOT": 3.306e-05, "MEAN_MOTION_DDOT": 0}, "tle": {"line1": "1 67073U 25297B   25353.27188687  .00003306  00000+0  22354-3 0  9993", "line2": "2 67073  97.4853 140.6452 0011417 296.9674  63.0387 15.07177511   776"}}, "geometry": {"type": "Point", "coordinates": [131.15756304604588, 53.254794069199086]}}, {"type": "Feature", "properties": {"norad_id": 67074, "name": "ELECTRON KICK STAGE R/B", "group": "last-30-days", "lat": -30.788400495499012, "lon": 146.230202020679, "alt_km": 391.19602608276546, "timestamp": "2025-12-19T22:41:51.100069+00:00", "meta": {"OBJECT_NAME": "ELECTRON KICK STAGE R/B", "OBJECT_ID": "2025-297C", "EPOCH": "2025-12-18T23:41:00.563712", "MEAN_MOTION": 15.55985409, "ECCENTRICITY": 0.02022582, "INCLINATION": 97.4818, "RA_OF_ASC_NODE": 140.7335, "ARG_OF_PERICENTER": 246.792, "MEAN_ANOMALY": 111.1921, "EPHEMERIS_TYPE": 0, "CLASSIFICATION_TYPE": "U", "NORAD_CAT_ID": 67074, "ELEMENT_SET_NO": 999, "REV_AT_EPOCH": 75, "BSTAR": 0.0014322456, "MEAN_MOTION_DOT": 0.00259375, "MEAN_MOTION_DDOT": 1.9664913e-05}, "tle": {"line1": "1 67074U 25297C   25352.98681208  .00259375  19665-4  14322-2 0  9994", "line2": "2 67074  97.4818 140.7335 0202258 246.7920 111.1921 15.55985409   754"}}, "geometry": {"type": "Point", "coordinates": [146.230202020679, -30.788400495499012]}}, {"type": "Feature", "properties": {"norad_id": 67131, "name": "ZIYUAN 3-04 (ZY 3-04)", "group": "last-30-days", "lat": 59.07384085485282, "lon": -99.29714838171925, "alt_km": 496.0892516166732, "timestamp": "2025-12-19T22:41:51.100080+00:00", "meta": {"OBJECT_NAME": "ZIYUAN 3-04 (ZY 3-04)", "OBJECT_ID": "2025-300A", "EPOCH": "2025-12-19T14:16:40.067616", "MEAN_MOTION": 15.21161685, "ECCENTRICITY": 0.0002222, "INCLINATION": 97.4887, "RA_OF_ASC_NODE": 67.6705, "ARG_OF_PERICENTER": 189.6459, "MEAN_ANOMALY": 170.4734, "EPHEMERIS_TYPE": 0, "CLASSIFICATION_TYPE": "U", "NORAD_CAT_ID": 67131, "ELEMENT_SET_NO": 999, "REV_AT_EPOCH": 53, "BSTAR": 6.1152e-05, "MEAN_MOTION_DOT": 1.292e-05, "MEAN_MOTION_DDOT": 0}, "tle": {"line1": "1 67131U 25300A   25353.59490819  .00001292  00000+0  61152-4 0  9993", "line2": "2 67131  97.4887  67.6705 0002222 189.6459 170.4734 15.21161685   534"}}, "geometry": {"type": "Point", "coordinates": [-99.29714838171925, 59.07384085485282]}}]}